[{"OBJECT_NAME":"STARLINK-1810","OBJECT_ID":"2020-073AR","EPOCH":"2026-03-10T00:00:02.999808","MEAN_MOTION":15.46905484,"ECCENTRICITY":0.00036204,"INCLINATION":53.0474,"RA_OF_ASC_NODE":230.4969,"ARG_OF_PERICENTER":174.4348,"MEAN_ANOMALY":86.5459,"EPHEMERIS_TYPE":0,"CLASSIFICATION_TYPE":"U","NORAD_CAT_ID":46709,"ELEMENT_SET_NO":999,"REV_AT_EPOCH":575,"BSTAR":0.002131862,"MEAN_MOTION_DOT":0.00110175,"MEAN_MOTION_DDOT":0},{"OBJECT_NAME":"KUWAITSAT-1","OBJECT_ID":"2023-001CY","EPOCH":"2026-03-09T18:03:29.196000","MEAN_MOTION":15.45271031,"ECCENTRICITY":0.00102534,"INCLINATION":97.3347,"RA_OF_ASC_NODE":138.265,"ARG_OF_PERICENTER":82.11,"MEAN_ANOMALY":278.1312,"EPHEMERIS_TYPE":0,"CLASSIFICATION_TYPE":"U","NORAD_CAT_ID":55103,"ELEMENT_SET_NO":999,"REV_AT_EPOCH":17721,"BSTAR":0.00049716234,"MEAN_MOTION_DOT":0.00023651,"MEAN_MOTION_DDOT":0}]
